{"type": "FeatureCollection", "features": [ {"type": "Feature", "properties": {"norad_id": 30914, "name": "FENGYUN 1C DEB", "group": "fengyun-1c-debris", "lat": 79.58317531216102, "lon": 156.29982660218744, "alt_km": 1201.8524171082772, "timestamp": "2025-12-11T15:53:39.821860+00:00", "meta": {"OBJECT_NAME": "FENGYUN 1C DEB", "OBJECT_ID": "1999-025AZC", "EPOCH": "2025-12-10T22:58:09.615072", "MEAN_MOTION": 13.08825188, "ECCENTRICITY": 0.0516313, "INCLINATION": 99.9827, "RA_OF_ASC_NODE": 228.9749, "ARG_OF_PERICENTER": 358.3788, "MEAN_ANOMALY": 1.5635, "EPHEMERIS_TYPE": 0, "CLASSIFICATION_TYPE": "U", "NORAD_CAT_ID": 30914, "ELEMENT_SET_NO": 999, "REV_AT_EPOCH": 59052, "BSTAR": 0.0052744, "MEAN_MOTION_DOT": 3.428e-05, "MEAN_MOTION_DDOT": 0}, "tle": {"line1": "1 30914U 99025AZC 25344.95705573  .00003428  00000+0  52744-2 0  9991", "line2": "2 30914  99.9827 228.9749 0516313 358.3788   1.5635 13.08825188590520"}}, "geometry": {"type": "Point", "coordinates": [156.29982660218744, 79.58317531216102]}}, {"type": "Feature", "properties": {"norad_id": 30915, "name": "FENGYUN 1C DEB", "group": "fengyun-1c-debris", "lat": 65.54865690133441, "lon": 41.55812177229149, "alt_km": 811.0397096062543, "timestamp": "2025-12-11T15:53:39.821870+00:00", "meta": {"OBJECT_NAME": "FENGYUN 1C DEB", "OBJECT_ID": "1999-025AZD", "EPOCH": "2025-12-10T15:59:09.860640", "MEAN_MOTION": 14.25015237, "ECCENTRICITY": 0.00538155, "INCLINATION": 98.9415, "RA_OF_ASC_NODE": 60.8015, "ARG_OF_PERICENTER": 173.9227, "MEAN_ANOMALY": 186.2616, "EPHEMERIS_TYPE": 0, "CLASSIFICATION_TYPE": "U", "NORAD_CAT_ID": 30915, "ELEMENT_SET_NO": 999, "REV_AT_EPOCH": 96483, "BSTAR": 0.002505326, "MEAN_MOTION_DOT": 5.913e-05, "MEAN_MOTION_DDOT": 0}, "tle": {"line1": "1 30915U 99025AZD 25344.66608635  .00005913  00000+0  25053-2 0  9995", "line2": "2 30915  98.9415  60.8015 0053815 173.9227 186.2616 14.25015237964839"}}, "geometry": {"type": "Point", "coordinates": [41.55812177229149, 65.54865690133441]}}, {"type": "Feature", "properties": {"norad_id": 30916, "name": "FENGYUN 1C DEB", "group": "fengyun-1c-debris", "lat": 4.391139215100399, "lon": -133.29543241314244, "alt_km": 862.3620365034585, "timestamp": "2025-12-11T15:53:39.821881+00:00", "meta": {"OBJECT_NAME": "FENGYUN 1C DEB", "OBJECT_ID": "1999-025AZE", "EPOCH": "2025-12-09T03:31:45.007680", "MEAN_MOTION": 14.0877406, "ECCENTRICITY": 0.00625639, "INCLINATION": 99.002, "RA_OF_ASC_NODE": 43.4963, "ARG_OF_PERICENTER": 268.4567, "MEAN_ANOMALY": 118.5461, "EPHEMERIS_TYPE": 0, "CLASSIFICATION_TYPE": "U", "NORAD_CAT_ID": 30916, "ELEMENT_SET_NO": 999, "REV_AT_EPOCH": 95793, "BSTAR": 0.0014002638, "MEAN_MOTION_DOT": 2.414e-05, "MEAN_MOTION_DDOT": 0}, "tle": {"line1": "1 30916U 99025AZE 25343.14704870  .00002414  00000+0  14003-2 0  9992", "line2": "2 30916  99.0020  43.4963 0062563 268.4567 118.5461 14.08774060957936"}}, "geometry": {"type": "Point", "coordinates": [-133.29543241314244, 4.391139215100399]}}, {"type": "Feature", "properties": {"norad_id": 30918, "name": "FENGYUN 1C DEB", "group": "fengyun-1c-debris", "lat": -52.678520446461306, "lon": 109.15810751746669, "alt_km": 1026.9936663152957, "timestamp": "2025-12-11T15:53:39.821891+00:00", "meta": {"OBJECT_NAME": "FENGYUN 1C DEB", "OBJECT_ID": "1999-025AZG", "EPOCH": "2025-12-10T14:26:58.535232", "MEAN_MOTION": 13.9680579, "ECCENTRICITY": 0.0158244, "INCLINATION": 98.4154, "RA_OF_ASC_NODE": 96.991, "ARG_OF_PERICENTER": 131.3352, "MEAN_ANOMALY": 246.9102, "EPHEMERIS_TYPE": 0, "CLASSIFICATION_TYPE": "U", "NORAD_CAT_ID": 30918, "ELEMENT_SET_NO": 999, "REV_AT_EPOCH": 95023, "BSTAR": 0.0022449, "MEAN_MOTION_DOT": 3.431e-05, "MEAN_MOTION_DDOT": 0}, "tle": {"line1": "1 30918U 99025AZG 25344.60206638  .00003431  00000+0  22449-2 0  9998", "line2": "2 30918  98.4154  96.9910 0158244 131.3352 246.9102 13.96805790950231"}}, "geometry": {"type": "Point", "coordinates": [109.15810751746669, -52.678520446461306]}}, {"type": "Feature", "properties": {"norad_id": 30920, "name": "FENGYUN 1C DEB", "group": "fengyun-1c-debris", "lat": 44.291812642519915, "lon": -44.234487237734484, "alt_km": 766.5196936338625, "timestamp": "2025-12-11T15:53:39.821901+00:00", "meta": {"OBJECT_NAME": "FENGYUN 1C DEB", "OBJECT_ID": "1999-025AZJ", "EPOCH": "2025-12-11T01:42:26.574624", "MEAN_MOTION": 14.16587686, "ECCENTRICITY": 0.01100503, "INCLINATION": 98.9189, "RA_OF_ASC_NODE": 126.3608, "ARG_OF_PERICENTER": 103.2061, "MEAN_ANOMALY": 258.1418, "EPHEMERIS_TYPE": 0, "CLASSIFICATION_TYPE": "U", "NORAD_CAT_ID": 30920, "ELEMENT_SET_NO": 999, "REV_AT_EPOCH": 95070, "BSTAR": 0.0056011966, "MEAN_MOTION_DOT": 0.00011824, "MEAN_MOTION_DDOT": 0}, "tle": {"line1": "1 30920U 99025AZJ 25345.07114091  .00011824  00000+0  56012-2 0  9992", "line2": "2 30920  98.9189 126.3608 0110050 103.2061 258.1418 14.16587686950708"}}, "geometry": {"type": "Point", "coordinates": [-44.234487237734484, 44.291812642519915]}}, {"type": "Feature", "properties": {"norad_id": 30921, "name": "FENGYUN 1C DEB", "group": "fengyun-1c-debris", "lat": -41.06780685615198, "lon": 80.91441582723452, "alt_km": 787.635813759618, "timestamp": "2025-12-11T15:53:39.821911+00:00", "meta": {"OBJECT_NAME": "FENGYUN 1C DEB", "OBJECT_ID": "1999-025AZK", "EPOCH": "2025-12-11T04:37:26.606784", "MEAN_MOTION": 14.32709883, "ECCENTRICITY": 0.00169286, "INCLINATION": 98.8422, "RA_OF_ASC_NODE": 72.6399, "ARG_OF_PERICENTER": 42.5656, "MEAN_ANOMALY": 15.3506, "EPHEMERIS_TYPE": 0, "CLASSIFICATION_TYPE": "U", "NORAD_CAT_ID": 30921, "ELEMENT_SET_NO": 999, "REV_AT_EPOCH": 96802, "BSTAR": 0.002699666, "MEAN_MOTION_DOT": 7.319e-05, "MEAN_MOTION_DDOT": 0}, "tle": {"line1": "1 30921U 99025AZK 25345.19266906  .00007319  00000+0  26997-2 0  9992", "line2": "2 30921  98.8422  72.6399 0016928  42.5656  15.3506 14.32709883968020"}}, "geometry": {"type": "Point", "coordinates": [80.91441582723452, -41.06780685615198]}}, {"type": "Feature", "properties": {"norad_id": 30922, "name": "FENGYUN 1C DEB", "group": "fengyun-1c-debris", "lat": -36.43702592853122, "lon": 7.982734387465792, "alt_km": 840.8480153590062, "timestamp": "2025-12-11T15:53:39.821921+00:00", "meta": {"OBJECT_NAME": "FENGYUN 1C DEB", "OBJECT_ID": "1999-025AZL", "EPOCH": "2025-12-09T20:36:06.254208", "MEAN_MOTION": 14.17448931, "ECCENTRICITY": 0.00146808, "INCLINATION": 98.6404, "RA_OF_ASC_NODE": 359.7837, "ARG_OF_PERICENTER": 61.6746, "MEAN_ANOMALY": 62.0594, "EPHEMERIS_TYPE": 0, "CLASSIFICATION_TYPE": "U", "NORAD_CAT_ID": 30922, "ELEMENT_SET_NO": 999, "REV_AT_EPOCH": 96523, "BSTAR": 0.0010059343, "MEAN_MOTION_DOT": 1.998e-05, "MEAN_MOTION_DDOT": 0}, "tle": {"line1": "1 30922U 99025AZL 25343.85840572  .00001998  00000+0  10059-2 0  9990", "line2": "2 30922  98.6404 359.7837 0014680  61.6746  62.0594 14.17448931965233"}}, "geometry": {"type": "Point", "coordinates": [7.982734387465792, -36.43702592853122]}}, {"type": "Feature", "properties": {"norad_id": 30925, "name": "FENGYUN 1C DEB", "group": "fengyun-1c-debris", "lat": -9.590687950957939, "lon": 118.91196760919148, "alt_km": 760.3538666948771, "timestamp": "2025-12-11T15:53:39.821932+00:00", "meta": {"OBJECT_NAME": "FENGYUN 1C DEB", "OBJECT_ID": "1999-025AZP", "EPOCH": "2025-12-10T20:40:24.087360", "MEAN_MOTION": 14.43073717, "ECCENTRICITY": 0.00330811, "INCLINATION": 98.8828, "RA_OF_ASC_NODE": 116.5633, "ARG_OF_PERICENTER": 242.8666, "MEAN_ANOMALY": 268.9324, "EPHEMERIS_TYPE": 0, "CLASSIFICATION_TYPE": "U", "NORAD_CAT_ID": 30925, "ELEMENT_SET_NO": 999, "REV_AT_EPOCH": 97045, "BSTAR": 0.0041150448, "MEAN_MOTION_DOT": 0.00013871, "MEAN_MOTION_DDOT": 0}, "tle": {"line1": "1 30925U 99025AZP 25344.86138990  .00013871  00000+0  41150-2 0  9998", "line2": "2 30925  98.8828 116.5633 0033081 242.8666 268.9324 14.43073717970454"}}, "geometry": {"type": "Point", "coordinates": [118.91196760919148, -9.590687950957939]}}, {"type": "Feature", "properties": {"norad_id": 30926, "name": "FENGYUN 1C DEB", "group": "fengyun-1c-debris", "lat": -42.293918618284444, "lon": -65.61596321584018, "alt_km": 561.7409367410983, "timestamp": "2025-12-11T15:53:39.821942+00:00", "meta": {"OBJECT_NAME": "FENGYUN 1C DEB", "OBJECT_ID": "1999-025AZQ", "EPOCH": "2025-12-11T01:34:14.757312", "MEAN_MOTION": 14.89314612, "ECCENTRICITY": 0.01660192, "INCLINATION": 98.802, "RA_OF_ASC_NODE": 285.6169, "ARG_OF_PERICENTER": 27.1655, "MEAN_ANOMALY": 333.8125, "EPHEMERIS_TYPE": 0, "CLASSIFICATION_TYPE": "U", "NORAD_CAT_ID": 30926, "ELEMENT_SET_NO": 999, "REV_AT_EPOCH": 742, "BSTAR": 0.00086499253, "MEAN_MOTION_DOT": 0.00010565, "MEAN_MOTION_DDOT": 0}, "tle": {"line1": "1 30926U 99025AZQ 25345.06544858  .00010565  00000+0  86499-3 0  9999", "line2": "2 30926  98.8020 285.6169 0166019  27.1655 333.8125 14.89314612  7422"}}, "geometry": {"type": "Point", "coordinates": [-65.61596321584018, -42.293918618284444]}}, {"type": "Feature", "properties": {"norad_id": 30927, "name": "FENGYUN 1C DEB", "group": "fengyun-1c-debris", "lat": 69.27768431468354, "lon": -108.57476070263502, "alt_km": 867.2558387273903, "timestamp": "2025-12-11T15:53:39.821952+00:00", "meta": {"OBJECT_NAME": "FENGYUN 1C DEB", "OBJECT_ID": "1999-025AZR", "EPOCH": "2025-12-10T10:24:49.588992", "MEAN_MOTION": 14.08960297, "ECCENTRICITY": 0.009844, "INCLINATION": 99.1824, "RA_OF_ASC_NODE": 44.8614, "ARG_OF_PERICENTER": 12.5092, "MEAN_ANOMALY": 347.8487, "EPHEMERIS_TYPE": 0, "CLASSIFICATION_TYPE": "U", "NORAD_CAT_ID": 30927, "ELEMENT_SET_NO": 999, "REV_AT_EPOCH": 95651, "BSTAR": 0.002186802, "MEAN_MOTION_DOT": 3.913e-05, "MEAN_MOTION_DDOT": 0}, "tle": {"line1": "1 30927U 99025AZR 25344.43390728  .00003913  00000+0  21868-2 0  9992", "line2": "2 30927  99.1824  44.8614 0098440  12.5092 347.8487 14.08960297956510"}}, "geometry": {"type": "Point", "coordinates": [-108.57476070263502, 69.27768431468354]}}]}